[{"OBJECT_NAME":"STARLINK-5592","OBJECT_ID":"2023-028A","EPOCH":"2026-03-09T22:22:42.987072","MEAN_MOTION":14.98334271,"ECCENTRICITY":0.00031442,"INCLINATION":69.999,"RA_OF_ASC_NODE":243.9567,"ARG_OF_PERICENTER":269.1505,"MEAN_ANOMALY":90.9294,"EPHEMERIS_TYPE":0,"CLASSIFICATION_TYPE":"U","NORAD_CAT_ID":55741,"ELEMENT_SET_NO":999,"REV_AT_EPOCH":16626,"BSTAR":9.787649e-6,"MEAN_MOTION_DOT":2.4e-7,"MEAN_MOTION_DDOT":0},{"OBJECT_NAME":"CENTAURI-8","OBJECT_ID":"2025-009DK","EPOCH":"2026-03-09T17:25:58.526112","MEAN_MOTION":14.9722833,"ECCENTRICITY":0.00030201,"INCLINATION":97.7096,"RA_OF_ASC_NODE":150.1876,"ARG_OF_PERICENTER":109.5881,"MEAN_ANOMALY":250.5667,"EPHEMERIS_TYPE":0,"CLASSIFICATION_TYPE":"U","NORAD_CAT_ID":62714,"ELEMENT_SET_NO":999,"REV_AT_EPOCH":6259,"BSTAR":0.00038891127,"MEAN_MOTION_DOT":4.445e-5,"MEAN_MOTION_DDOT":0}]
